OBJECT_NAME,OBJECT_ID,EPOCH,MEAN_MOTION,ECCENTRICITY,INCLINATION,RA_OF_ASC_NODE,ARG_OF_PERICENTER,MEAN_ANOMALY,EPHEMERIS_TYPE,CLASSIFICATION_TYPE,NORAD_CAT_ID,ELEMENT_SET_NO,REV_AT_EPOCH,BSTAR,MEAN_MOTION_DOT,MEAN_MOTION_DDOT
AAUSAT 3,2013-009B,2026-06-10T05:33:52.379136,14.39930829,.00103886,98.3702,345.1844,228.8767,131.1525,0,U,39087,999,69617,.19332482E-3,.565E-5,0
STRAND-1,2013-009E,2026-06-10T05:35:36.828960,14.37159178,.00074663,98.3921,341.6387,249.0407,110.9981,0,U,39090,999,69606,.10110104E-3,.258E-5,0
BRITE-AUSTRIA,2013-009F,2026-06-10T07:30:07.954848,14.36539349,.00089765,98.3993,340.9187,259.7198,100.2977,0,U,39091,999,69606,.66105194E-4,.151E-5,0
UNIBRITE,2013-009G,2026-06-10T01:05:40.479360,14.36410449,.00079037,98.4032,340.7675,256.4595,103.5712,0,U,39092,999,69596,.72936935E-4,.171E-5,0
AIST-2 (RS43),2013-015D,2026-06-10T05:53:43.301184,15.26227114,.00189938,64.8694,280.0289,246.5677,113.3457,0,U,39133,999,72284,.21908357E-3,.5516E-4,0
GAOFEN-1,2013-018A,2026-06-10T06:52:14.204064,14.76527222,.00158576,97.9092,233.4941,290.7808,69.1703,0,U,39150,999,70722,-.3324727E-4,-.283E-5,0
NEE-01 PEGASO,2013-018B,2026-06-09T21:31:01.316928,14.93627979,.0012551,98.1215,304.8067,181.9337,178.1836,0,U,39151,999,70961,.23819067E-3,.2457E-4,0
TURKSAT-3USAT,2013-018C,2026-06-10T04:39:05.166720,14.96381868,.0013464,97.7919,252.0481,121.5188,238.7350,0,U,39152,999,71004,.30870572E-3,.3444E-4,0
CUBEBUG-1 (CAPITAN BETO),2013-018D,2026-06-09T16:24:01.534176,14.97257943,.00116063,98.1665,320.2916,167.2381,192.9136,0,U,39153,999,70994,.20960871E-3,.2367E-4,0
PROBA-V,2013-021A,2026-06-10T05:32:59.616384,14.23595513,.00048552,98.3581,140.1814,140.0280,220.1257,0,U,39159,999,68012,.47355932E-4,.67E-6,0
ESTCUBE 1,2013-021C,2026-06-09T21:35:41.850816,14.81378596,.0009198,97.7296,215.3409,47.1793,313.0192,0,U,39161,999,70394,.18638633E-3,.1407E-4,0
ARIRANG-5 (KOMPSAT-5),2013-042A,2026-06-08T23:38:58.020000,15.04559791,.0004248,97.6218,346.8017,139.4546,220.6997,0,U,39227,999,70262,.13610837E-3,.1848E-4,0
GONETS-M 5,2013-048A,2026-06-10T06:32:39.674688,12.42891537,.00158333,82.4837,347.6943,226.3068,133.6700,0,U,39249,999,57802,.75347404E-4,.2E-6,0
GONETS-M 7,2013-048C,2026-06-10T07:35:24.922752,12.42914461,.00166215,82.4904,350.5858,227.5946,132.3728,0,U,39251,999,57798,.18467302E-3,.35E-6,0
FENGYUN 3C,2013-052A,2026-06-10T06:13:11.038656,14.15753434,.00155821,98.4976,135.4522,46.5455,313.7013,0,U,39260,999,65758,.57889557E-4,.72E-6,0
CASSIOPE,2013-055A,2026-06-10T06:31:47.959104,15.24552928,.02950869,80.9146,75.1134,85.6269,277.8614,0,U,39265,999,66661,.47181423E-3,.42872E-3,-.559062E-6
APRIZESAT 7,2013-066A,2026-06-10T02:38:20.748768,14.91549337,.00345176,97.7706,114.4318,233.3827,126.4215,0,U,39416,999,68017,.90314263E-4,.857E-5,0
ZACUBE-1 (TSHEPISOSAT),2013-066B,2026-06-10T03:24:07.668288,15.01145439,.00401131,97.8088,123.4403,272.4357,87.2274,0,U,39417,999,67967,.25692287E-3,.3283E-4,0
APRIZESAT 8,2013-066K,2026-06-10T01:53:45.574080,14.87638823,.0044754,97.8219,108.6462,310.6608,49.0722,0,U,39425,999,67861,.10783461E-3,.941E-5,0
CINEMA-3 (KHUSAT-2),2013-066L,2026-06-09T16:43:49.747584,14.78283312,.0088608,97.8408,73.0874,236.0938,123.1823,0,U,39426,999,67334,.13242362E-3,.97E-5,0
TRITON-1,2013-066M,2026-06-10T06:32:07.615104,14.81682284,.00883367,97.8247,71.2365,256.8701,102.2643,0,U,39427,999,67306,.19431154E-3,.1578E-4,0
DELFI-N3XT,2013-066N,2026-06-10T00:23:44.387808,14.95015560,.00730022,97.8343,81.3351,229.9263,129.5541,0,U,39428,999,67355,.37359977E-3,.4246E-4,0
GOMX-1,2013-066Q,2026-06-10T07:24:11.599776,14.69432909,.013016,97.6495,2.2054,99.3688,262.2261,0,U,39430,999,66890,.22233134E-3,.1449E-4,0
BRITE-PL1 (LEM),2013-066R,2026-06-10T00:33:08.194464,14.51364282,.01906426,97.7957,273.8717,33.9029,327.4183,0,U,39431,999,66289,.91502619E-4,.413E-5,0
ICUBE-1,2013-066S,2026-06-09T21:54:55.591488,15.25660738,.00160955,97.5688,146.4902,4.9956,355.1440,0,U,39432,999,68330,.54788177E-3,.13933E-3,0
VELOX-PII,2013-066Y,2026-06-10T03:10:26.779296,14.93065690,.00530614,97.8734,112.4880,8.1346,352.0721,0,U,39438,999,67678,.32174734E-3,.3381E-4,0
CUBEBUG-2 (LO-74),2013-066AA,2026-06-10T02:18:58.118400,14.93705686,.00590877,97.8902,110.0449,51.9853,308.6680,0,U,39440,999,67593,.32201289E-3,.3464E-4,0
NEE-02 KRYSAOR,2013-066AB,2026-06-10T01:47:15.883296,14.86588167,.00677449,97.8886,100.3401,92.9703,267.9268,0,U,39441,999,67514,.19962884E-3,.1787E-4,0
FUNCUBE-1 (AO-73),2013-066AE,2026-06-10T03:53:39.631200,15.09404981,.00349533,97.8264,132.4615,225.4147,134.4228,0,U,39444,999,67860,.33442229E-3,.5353E-4,0
HINCUBE,2013-066AF,2026-06-09T20:30:41.222592,15.08196760,.00316209,97.7963,129.2674,233.8758,125.9542,0,U,39445,999,67842,.40893391E-3,.6331E-4,0
UWE-3,2013-066AG,2026-06-10T03:07:52.062816,14.96967920,.00486625,97.8685,117.1571,344.7844,15.1910,0,U,39446,999,67652,.3417145E-3,.3961E-4,0
SMDC ONE 2.4,2013-072H,2026-06-10T02:08:31.228512,15.18048545,.01443065,120.4931,324.6819,11.4633,348.9676,0,U,39469,999,11675,.34100046E-3,.8788E-4,0
CP8 (IPEX),2013-072K,2026-06-10T06:39:17.879328,15.08013541,.01636235,120.4641,272.1983,355.0727,4.8733,0,U,39471,999,11419,.26507526E-3,.5205E-4,0
COSMOS 2488 (RODNIK-S 7),2013-076A,2026-06-10T06:37:41.077632,12.42905245,.00207776,82.4835,173.0009,109.5431,250.7894,0,U,39483,999,56503,-.1811228E-3,-.15E-6,0
COSMOS 2489 (RODNIK-S 8),2013-076B,2026-06-10T07:57:40.754880,12.42879352,.00226024,82.4872,174.3428,109.4757,250.8767,0,U,39484,999,56509,.20330332E-3,.38E-6,0
COSMOS 2490 (RODNIK-S 9),2013-076C,2026-06-10T07:17:11.079744,12.42877723,.00225805,82.4818,172.4308,124.5143,235.8073,0,U,39485,999,56502,.10726733E-3,.25E-6,0
AIST-1 (RS41),2013-078C,2026-06-10T06:30:10.723680,14.96052494,.00155293,82.4153,277.5741,304.4229,55.5524,0,U,39492,999,67421,.15267927E-3,.1743E-4,0
KAZEOSAT 1,2014-024A,2026-06-10T06:59:35.176704,14.42077373,.00014543,98.3202,233.9100,77.0023,283.1329,0,U,39731,999,63756,.44603971E-4,.104E-5,0
COSMOS 2496 (RODNIK-S 10),2014-028A,2026-06-10T06:16:02.356032,12.42878401,.00212736,82.4442,113.0688,93.1198,267.2316,0,U,39761,999,54665,.25157423E-3,.45E-6,0
COSMOS 2497 (RODNIK-S 11),2014-028B,2026-06-10T05:40:34.235040,12.42894037,.00218652,82.4490,114.7713,88.4414,271.9170,0,U,39762,999,54665,.31510442E-3,.54E-6,0
COSMOS 2498 (RODNIK-S 12),2014-028C,2026-06-10T05:09:00.575136,12.42980079,.00225512,82.4452,113.2752,88.0881,272.2781,0,U,39763,999,54668,.31004038E-3,.53E-6,0
COSMOS 2499 (RS47),2014-028E,2026-06-10T06:14:34.208160,12.82902531,.02316712,82.4497,257.1021,18.1950,342.7270,0,U,39765,999,56413,-.16584328E-4,.7E-7,0
HODOYOSHI-4,2014-033B,2026-06-10T07:26:27.384288,14.88109492,.00230666,97.5458,346.4648,332.0122,27.9853,0,U,40011,999,64778,.43931906E-4,.353E-5,0
UNISAT-6,2014-033C,2026-06-10T04:59:36.263040,14.88208778,.00464243,97.7868,314.0439,91.6430,269.0105,0,U,40012,999,64512,.26317509E-3,.242E-4,0
DEIMOS-2,2014-033D,2026-06-10T06:47:58.402176,14.93711125,.00020388,97.5844,36.0145,57.2226,302.9190,0,U,40013,999,63669,.16811929E-3,.1725E-4,0
BUGSAT-1 (TITA),2014-033E,2026-06-10T07:14:31.865280,15.15510976,.00275511,98.0419,253.4480,201.6736,158.3332,0,U,40014,999,65479,.27111849E-3,.5108E-4,0
SAUDISAT 4,2014-033G,2026-06-10T03:40:17.822784,14.79535057,.00462411,97.7575,307.5315,96.1662,264.4821,0,U,40016,999,64503,.92071185E-4,.649E-5,0
APRIZESAT 9,2014-033J,2026-06-09T21:03:06.269760,14.74204743,.00652033,97.9051,294.2548,222.9098,136.7013,0,U,40018,999,64248,.93933881E-4,.588E-5,0
BRITE-CA1 (TORONTO),2014-033L,2026-06-10T04:12:32.736960,14.72666999,.00773914,97.9730,290.2329,299.8614,59.4918,0,U,40020,999,64118,.98294147E-4,.602E-5,0
DUCHIFAT-1,2014-033M,2026-06-09T15:55:00.117120,15.63096310,.00042507,98.0468,218.7756,128.7819,231.3818,0,U,40021,999,65457,.97274361E-3,.89241E-3,0
NANOSATC-BR1,2014-033Q,2026-06-09T19:43:06.415392,15.31222674,.00036841,98.0733,192.5577,183.5527,176.5687,0,U,40024,999,65285,.55025603E-3,.16529E-3,0
QB50P1,2014-033R,2026-06-10T07:05:40.272864,15.18156490,.00072306,98.0973,171.9588,242.7053,117.3443,0,U,40025,999,65198,.3817625E-3,.7727E-4,0
DTUSAT-2,2014-033W,2026-06-10T05:40:52.141440,15.14929208,.00061548,98.0862,158.5229,254.1895,105.8657,0,U,40030,999,65163,.31567519E-3,.5811E-4,0
QB50P2,2014-033Y,2026-06-10T05:33:33.245856,15.15070274,.00072805,98.0751,157.6792,185.6730,174.4419,0,U,40032,999,65161,.3250562E-3,.6011E-4,0
PERSEUS-M1,2014-033AF,2026-06-10T01:52:40.520064,14.95611900,.00107249,97.9645,105.0938,328.4585,31.5991,0,U,40039,999,64957,.13256399E-3,.1412E-4,0
POLYITAN-1,2014-033AJ,2026-06-10T00:04:54.323328,15.33005372,.00081138,98.0952,186.5861,161.9908,198.1621,0,U,40042,999,65249,.56929436E-3,.18102E-3,0
TIGRISAT,2014-033AK,2026-06-10T04:13:50.355264,14.85135319,.00507086,97.7822,311.3494,97.5926,263.1053,0,U,40043,999,64458,.241094E-3,.2056E-4,0
AISAT,2014-034B,2026-06-10T00:01:20.301888,15.08691900,.00074038,98.2392,72.8844,241.0470,119.0015,0,U,40054,999,64612,.58833037E-3,.9162E-4,0
CANX-4,2014-034C,2026-06-09T22:10:30.223488,14.81251246,.00136411,98.3132,35.9700,39.2768,320.9431,0,U,40055,999,64345,.11365033E-3,.829E-5,0
CANX-5,2014-034D,2026-06-10T04:37:27.513120,14.81268948,.00136362,98.3134,36.2920,38.5954,321.6230,0,U,40056,999,63430,.11271039E-3,.822E-5,0
VELOX-I,2014-034E,2026-06-10T05:51:56.529792,14.97822690,.00064255,98.2546,65.8543,305.3241,54.7379,0,U,40057,999,64556,.32918669E-3,.3805E-4,0
GONETS-M 10,2014-036C,2026-06-10T05:29:03.168096,12.42945630,.00223994,82.5110,311.9978,155.2431,204.9729,0,U,40063,999,54138,.29445242E-3,.51E-6,0
METEOR-M 2,2014-037A,2026-06-10T05:56:13.194816,14.21460622,.00069826,98.5112,137.2317,61.2357,298.9521,0,U,40069,999,61833,.15814965E-3,.304E-5,0
DX1,2014-037C,2026-06-10T05:49:47.940672,14.89965461,.00059375,98.3860,122.5233,303.3014,56.7633,0,U,40071,999,64507,.21492534E-3,.2008E-4,0
